[{"OBJECT_NAME":"ION SCV-008","OBJECT_ID":"2023-001AU","EPOCH":"2026-03-09T19:46:58.662912","MEAN_MOTION":15.2722664,"ECCENTRICITY":0.00151921,"INCLINATION":97.5676,"RA_OF_ASC_NODE":163.606,"ARG_OF_PERICENTER":8.542,"MEAN_ANOMALY":351.6074,"EPHEMERIS_TYPE":0,"CLASSIFICATION_TYPE":"U","NORAD_CAT_ID":55051,"ELEMENT_SET_NO":999,"REV_AT_EPOCH":17616,"BSTAR":0.00031422806,"MEAN_MOTION_DOT":8.336e-5,"MEAN_MOTION_DDOT":0},{"OBJECT_NAME":"STARLINK-31125","OBJECT_ID":"2023-211M","EPOCH":"2026-03-09T02:26:12.497856","MEAN_MOTION":15.27579104,"ECCENTRICITY":6.876e-5,"INCLINATION":43.0021,"RA_OF_ASC_NODE":88.6818,"ARG_OF_PERICENTER":254.9458,"MEAN_ANOMALY":105.1318,"EPHEMERIS_TYPE":0,"CLASSIFICATION_TYPE":"U","NORAD_CAT_ID":58678,"ELEMENT_SET_NO":999,"REV_AT_EPOCH":12354,"BSTAR":6.663399e-6,"MEAN_MOTION_DOT":-7.8e-7,"MEAN_MOTION_DDOT":0}]
